*******************************************************************************
 Revised: April 12, 2021               Jupiter                              599
 
 PHYSICAL DATA:
  Mass x 10^22 (g)      = 189818722 +- 8817 Density (g/cm^3)  = 1.3262 +- .0003
  Equat. radius (1 bar) = 71492+-4 km       Polar radius (km)     = 66854+-10
  Vol. Mean Radius (km) = 69911+-6          Flattening            = 0.06487
  Geometric Albedo      = 0.52              Rocky core mass (Mc/M)= 0.0261
  Sid. rot. period (III)= 9h 55m 29.71 s    Sid. rot. rate (rad/s)= 0.00017585
  Mean solar day, hrs   = ~9.9259         
  GM (km^3/s^2)         = 126686531.900     GM 1-sigma (km^3/s^2) =  +- 1.2732
  Equ. grav, ge (m/s^2) = 24.79             Pol. grav, gp (m/s^2) =  28.34
  Vis. magnitude V(1,0) = -9.40
  Vis. mag. (opposition)= -2.70             Obliquity to orbit    =  3.13 deg
  Sidereal orbit period = 11.861982204 y    Sidereal orbit period = 4332.589 d
  Mean daily motion     = 0.0831294 deg/d   Mean orbit speed, km/s= 13.0697
  Atmos. temp. (1 bar)  = 165+-5 K          Escape speed, km/s    =  59.5           
  A_roche(ice)/Rp       =  2.76             Hill's sphere rad. Rp = 740
                                 Perihelion   Aphelion     Mean
  Solar Constant (W/m^2)         56           46           51
  Maximum Planetary IR (W/m^2)   13.7         13.4         13.6
  Minimum Planetary IR (W/m^2)   13.7         13.4         13.6
*******************************************************************************


*******************************************************************************
Ephemeris / WWW_USER Thu Feb 23 07:33:47 2023 Pasadena, USA      / Horizons    
*******************************************************************************
Target body name: Jupiter (599)                   {source: jup365_merged}
Center body name: Earth (399)                     {source: DE441}
Center-site name: GEOCENTRIC
*******************************************************************************
Start time      : A.D. 2020-Aug-12 18:00:00.0000 UT      
Stop  time      : A.D. 2020-Aug-12 19:00:00.0000 UT      
Step-size       : 1 minutes
*******************************************************************************
Target pole/equ : IAU_JUPITER                     {West-longitude positive}
Target radii    : 71492.0, 71492.0, 66854.0 km    {Equator_a, b, pole_c}       
Center geodetic : 0.0, 0.0, -6378.137             {E-lon(deg),Lat(deg),Alt(km)}
Center cylindric: 0.0, 0.0, 0.0                   {E-lon(deg),Dxy(km),Dz(km)}
Center pole/equ : ITRF93                          {East-longitude positive}
Center radii    : 6378.137, 6378.137, 6356.752 km {Equator_a, b, pole_c}       
Target primary  : Sun
Vis. interferer : MOON (R_eq= 1737.400) km        {source: DE441}
Rel. light bend : Sun                             {source: jup365_merged}
Rel. lght bnd GM: 1.3271E+11 km^3/s^2                                          
Atmos refraction: NO (AIRLESS)
RA format       : HMS
Time format     : CAL 
Calendar mode   : Mixed Julian/Gregorian
EOP file        : eop.230221.p230517                                           
EOP coverage    : DATA-BASED 1962-JAN-20 TO 2023-FEB-21. PREDICTS-> 2023-MAY-16
Units conversion: 1 au= 149597870.700 km, c= 299792.458 km/s, 1 day= 86400.0 s 
Table cut-offs 1: Elevation (-90.0deg=NO ),Airmass (>38.000=NO), Daylight (NO )
Table cut-offs 2: Solar elongation (  0.0,180.0=NO ),Local Hour Angle( 0.0=NO )
Table cut-offs 3: RA/DEC angular rate (     0.0=NO )                           
******************************************************************************************************************************************************************************
 Date__(UT)__HR:MN     R.A._____(ICRF)_____DEC    APmag   S-brt             delta      deldot     S-O-T /r     S-T-O  Sky_motion  Sky_mot_PA  RelVel-ANG  Lun_Sky_Brt  sky_SNR
******************************************************************************************************************************************************************************
$$SOE
 2020-Aug-12 18:33     19 20 54.31 -22 31 25.1   -2.674   5.390  4.25481529789962  13.6639606  148.4187 /T    5.9138   0.2300834   261.03680   49.104056         n.a.     n.a.
 2020-Aug-12 18:34     19 20 54.29 -22 31 25.1   -2.674   5.390  4.25482077827168  13.6642587  148.4180 /T    5.9139   0.2300793   261.03683   49.105144         n.a.     n.a.
 2020-Aug-12 18:35     19 20 54.28 -22 31 25.1   -2.674   5.390  4.25482625876331  13.6645569  148.4173 /T    5.9141   0.2300752   261.03685   49.106233         n.a.     n.a.
 2020-Aug-12 18:36     19 20 54.26 -22 31 25.2   -2.674   5.390  4.25483173937453  13.6648550  148.4165 /T    5.9142   0.2300711   261.03687   49.107321         n.a.     n.a.
 2020-Aug-12 18:37     19 20 54.24 -22 31 25.2   -2.674   5.390  4.25483722010532  13.6651532  148.4158 /T    5.9143   0.2300670   261.03689   49.108410         n.a.     n.a.
 2020-Aug-12 18:38     19 20 54.23 -22 31 25.2   -2.674   5.390  4.25484270095568  13.6654513  148.4151 /T    5.9144   0.2300629   261.03691   49.109498         n.a.     n.a.
 2020-Aug-12 18:39     19 20 54.21 -22 31 25.3   -2.674   5.390  4.25484818192562  13.6657494  148.4143 /T    5.9146   0.2300588   261.03693   49.110586         n.a.     n.a.
 2020-Aug-12 18:40     19 20 54.19 -22 31 25.3   -2.674   5.390  4.25485366301513  13.6660475  148.4136 /T    5.9147   0.2300547   261.03696   49.111675         n.a.     n.a.
 2020-Aug-12 18:41     19 20 54.18 -22 31 25.4   -2.674   5.390  4.25485914422419  13.6663456  148.4129 /T    5.9148   0.2300506   261.03698   49.112763         n.a.     n.a.
 2020-Aug-12 18:42     19 20 54.16 -22 31 25.4   -2.674   5.390  4.25486462555282  13.6666437  148.4121 /T    5.9149   0.2300465   261.03700   49.113851         n.a.     n.a.
 2020-Aug-12 18:43     19 20 54.14 -22 31 25.4   -2.674   5.390  4.25487010700102  13.6669418  148.4114 /T    5.9151   0.2300424   261.03702   49.114940         n.a.     n.a.
 2020-Aug-12 18:44     19 20 54.13 -22 31 25.5   -2.674   5.390  4.25487558856877  13.6672399  148.4107 /T    5.9152   0.2300382   261.03704   49.116028         n.a.     n.a.
 2020-Aug-12 18:45     19 20 54.11 -22 31 25.5   -2.674   5.390  4.25488107025608  13.6675380  148.4099 /T    5.9153   0.2300341   261.03706   49.117117         n.a.     n.a.
 2020-Aug-12 18:46     19 20 54.10 -22 31 25.5   -2.674   5.390  4.25488655206294  13.6678361  148.4092 /T    5.9154   0.2300300   261.03709   49.118205         n.a.     n.a.
 2020-Aug-12 18:47     19 20 54.08 -22 31 25.6   -2.674   5.390  4.25489203398936  13.6681341  148.4085 /T    5.9155   0.2300259   261.03711   49.119293         n.a.     n.a.
 2020-Aug-12 18:48     19 20 54.06 -22 31 25.6   -2.674   5.390  4.25489751603531  13.6684322  148.4078 /T    5.9157   0.2300218   261.03713   49.120381         n.a.     n.a.
 2020-Aug-12 18:49     19 20 54.05 -22 31 25.6   -2.674   5.390  4.25490299820081  13.6687302  148.4070 /T    5.9158   0.2300177   261.03715   49.121470         n.a.     n.a.
 2020-Aug-12 18:50     19 20 54.03 -22 31 25.7   -2.674   5.390  4.25490848048586  13.6690283  148.4063 /T    5.9159   0.2300136   261.03717   49.122558         n.a.     n.a.
 2020-Aug-12 18:51     19 20 54.01 -22 31 25.7   -2.674   5.390  4.25491396289044  13.6693263  148.4056 /T    5.9160   0.2300095   261.03719   49.123646         n.a.     n.a.
 2020-Aug-12 18:52     19 20 54.00 -22 31 25.7   -2.674   5.390  4.25491944541457  13.6696244  148.4048 /T    5.9162   0.2300054   261.03722   49.124735         n.a.     n.a.
 2020-Aug-12 18:53     19 20 53.98 -22 31 25.8   -2.674   5.390  4.25492492805823  13.6699224  148.4041 /T    5.9163   0.2300013   261.03724   49.125823         n.a.     n.a.
 2020-Aug-12 18:54     19 20 53.96 -22 31 25.8   -2.674   5.390  4.25493041082141  13.6702204  148.4034 /T    5.9164   0.2299971   261.03726   49.126911         n.a.     n.a.
 2020-Aug-12 18:55     19 20 53.95 -22 31 25.8   -2.674   5.390  4.25493589370413  13.6705184  148.4026 /T    5.9165   0.2299930   261.03728   49.127999         n.a.     n.a.
 2020-Aug-12 18:56     19 20 53.93 -22 31 25.9   -2.674   5.390  4.25494137670637  13.6708164  148.4019 /T    5.9166   0.2299889   261.03730   49.129088         n.a.     n.a.
 2020-Aug-12 18:57     19 20 53.92 -22 31 25.9   -2.674   5.390  4.25494685982813  13.6711144  148.4012 /T    5.9168   0.2299848   261.03732   49.130176         n.a.     n.a.
 2020-Aug-12 18:58     19 20 53.90 -22 31 26.0   -2.674   5.390  4.25495234306942  13.6714124  148.4004 /T    5.9169   0.2299807   261.03735   49.131264         n.a.     n.a.
 2020-Aug-12 18:59     19 20 53.88 -22 31 26.0   -2.674   5.390  4.25495782643023  13.6717104  148.3997 /T    5.9170   0.2299766   261.03737   49.132352         n.a.     n.a.
 2020-Aug-12 19:00     19 20 53.87 -22 31 26.0   -2.674   5.390  4.25496330991055  13.6720084  148.3990 /T    5.9171   0.2299725   261.03739   49.133441         n.a.     n.a.
